GLOBALSTAR M001         
1 25162U 98008A   25086.76471280 -.00000082  00000+0  11354-3 0  9994
2 25162  52.0023 210.2107 0002141  93.1672  56.7822 12.38210853233628
GLOBALSTAR M004         
1 25163U 98008B   25086.83578367 -.00000049  00000+0  30270-3 0  9998
2 25163  52.0005 302.3369 0003862 105.5212   5.4865 12.63391981251405
GLOBALSTAR M002         
1 25164U 98008C   25087.27133075 -.00000046  00000+0  59087-3 0  9995
2 25164  52.0000  83.0838 0001357   1.7222 358.3602 11.61508347174732
GLOBALSTAR M003         
1 25165U 98008D   25086.88079545 -.00000066  00000+0  25230-3 0  9998
2 25165  52.0025  33.7010 0008277 127.0865 247.6596 12.12075584223362
GLOBALSTAR M014         
1 25306U 98023A   25086.72732109 -.00000073  00000+0  79986-4 0  9993
2 25306  51.9877   9.3877 0000655 180.1381 214.4457 11.65478875181679
GLOBALSTAR M006         
1 25307U 98023B   25087.37048024 -.00000065  00000+0  22270-3 0  9996
2 25307  51.9944  57.2107 0003314 321.4581 196.4949 11.58173275207571
GLOBALSTAR M015         
1 25308U 98023C   25087.49271922 -.00000088  00000+0 -32168-3 0  9998
2 25308  51.9803 151.6833 0012193 291.1505 171.9610 11.48858349185170
GLOBALSTAR M008         
1 25309U 98023D   25087.27888154 -.00000058  00000+0  29609-3 0  9998
2 25309  51.9964  72.6254 0002681  10.6596   2.7942 12.36065362228151
